ASTERIA                 
1 43020U 98067NH  18323.83647300  .00017826  00000-0  19708-3 0  9999
2 43020  51.6418 310.4231 0003179  49.0707 311.0563 15.63108601 56806
DELLINGR (RBLE)         
1 43021U 98067NJ  18323.81413157  .00008044  00000-0  10500-3 0  9992
2 43021  51.6397 314.7166 0002975  38.8889 321.2318 15.59679499 56744
OSIRIS-3U               
1 43027U 98067NL  18323.84195258  .00078199  00000-0  47673-3 0  9999
2 43027  51.6359 296.7837 0005227  59.5139 300.6377 15.76706756 56868
AEROCUBE 7B             
1 43042U 17071F   18323.21755022  .00003041  00000-0  85380-4 0  9996
2 43042  51.6400   5.7315 0005348 105.5952 254.5623 15.39827687 53482
AEROCUBE 7C             
1 43043U 17071G   18323.54185415  .00002444  00000-0  70594-4 0  9993
2 43043  51.6403   4.1557 0005438 108.1064 252.0513 15.39831681 53503
CHEFSAT                 
1 43044U 17071H   18322.65205307  .00005173  00000-0  13143-3 0  9996
2 43044  51.6406   6.5175 0005239 103.1527 257.0043 15.41378847 53390
ASGARDIA 1              
1 43049U 17071N   18323.18588073  .00003388  00000-0  93598-4 0  9993
2 43049  51.6405   5.5416 0002861 121.2421 238.8844 15.39947725 53449
ISARA                   
1 43050U 17071P   18323.12971189  .00005606  00000-0  14295-3 0  9994
2 43050  51.6400   4.4396 0002657 116.3414 243.7845 15.41090009 53455
FAUNA                   
1 43052U 17071R   18323.15838783  .00003063  00000-0  85068-4 0  9993
2 43052  51.6407   5.3711 0002794 117.4438 242.6831 15.40136427 53441
CORVUS BC3              
1 43118U 18004H   18323.45945899  .00000869  00000-0  40595-4 0  9990
2 43118  97.5156  26.2161 0008952 272.1652  87.8559 15.22502640 47335
MICROMAS-2A             
1 43131U 18004W   18323.48035889  .00001950  00000-0  85085-4 0  9992
2 43131  97.5170  26.5296 0008067 275.1160  84.9156 15.23352689 47352
GOMX4-B                 
1 43196U 18015E   18323.19386882  .00000300  00000-0  15367-4 0  9999
2 43196  97.3655  89.1478 0018622 336.8156  23.2234 15.23755481 44137
GOMX4-A                 
1 43197U 18015F   18323.86605477  .00000299  00000-0  15324-4 0  9998
2 43197  97.3665  89.8171 0018651 335.4698 141.1900 15.23827074 44244
1KUNS-PF                
1 43466U 98067NP  18323.40420408  .00014173  00000-0  18286-3 0  9996
2 43466  51.6395 320.9693 0001467  44.6858 315.4253 15.59269197 29883
UBAKUSAT                
1 43467U 98067NQ  18323.45417904  .00009901  00000-0  13485-3 0  9998
2 43467  51.6387 321.3041 0003042   9.5085 350.5964 15.58227815 29890
BATSU-CS1 (IRAZU)       
1 43468U 98067NR  18322.46199430  .00013934  00000-0  17472-3 0  9991
2 43468  51.6395 325.1765 0001466  41.6816 318.4289 15.60043598129736
CUBERRT                 
1 43546U 98067NU  18323.22901126  .00022182  00000-0  30143-3 0  9991
2 43546  51.6394 324.2906 0006767  56.1942 303.9694 15.57500506 19964
TEMPEST-D               
1 43547U 98067NV  18323.53318036  .00003729  00000-0  59951-4 0  9993
2 43547  51.6399 323.3181 0006618  56.5145 303.6478 15.55784689 19689
RAINCUBE                
1 43548U 98067NW  18323.50777592  .00010030  00000-0  14424-3 0  9995
2 43548  51.6393 323.1496 0006753  64.2843 295.8845 15.56724375 20131
HALOSAT                 
1 43549U 98067NX  18323.44416465  .00010017  00000-0  14405-3 0  9992
2 43549  51.6395 323.4759 0006712  65.7922 294.3771 15.56728545 19681
ENDUROSAT ONE           
1 43551U 98067NZ  18322.44774269  .00010290  00000-0  14473-3 0  9991
2 43551  51.6393 328.0691 0007302  67.5956 292.5809 15.57291938 19944
EQUISAT                 
1 43552U 98067PA  18323.42121306  .00009948  00000-0  14170-3 0  9991
2 43552  51.6394 323.3229 0007476  71.9386 288.2420 15.56992042 20057
AEROCUBE 12A            
1 43556U 18046C   18323.51743382  .00000457  00000-0  29306-4 0  9992
2 43556  51.6436 349.0957 0008975  38.2326 321.9288 15.28029152 19266
AEROCUBE 12B            
1 43557U 18046D   18323.19199081  .00000479  00000-0  30142-4 0  9992
2 43557  51.6438 350.6722 0008967  37.2194 322.9406 15.27983066 19164
UITMSAT-1               
1 43589U 98067PD  18323.46714378  .00011228  00000-0  16116-3 0  9998
2 43589  51.6390 323.6253 0006855  79.0497 281.1265 15.56632785 15794
MAYA-1                  
1 43590U 98067PE  18323.20855627  .00011642  00000-0  16671-3 0  9991
2 43590  51.6392 324.8988 0006900  79.1632 281.0136 15.56654659 15687
BHUTAN-1                
1 43591U 98067PF  18323.20601850  .00011669  00000-0  16681-3 0  9999
2 43591  51.6394 324.8822 0006988  80.2887 279.8894 15.56697382 15684
SIRIUSSAT-1             
1 43595U 98067PG  18322.91464025  .00010284  00000-0  15059-3 0  9991
2 43595  51.6394 326.6817 0004530  38.0375 322.0936 15.56207763 14818
SIRIUSSAT-2             
1 43596U 98067PH  18323.18030964  .00010494  00000-0  15434-3 0  9993
2 43596  51.6402 325.4654 0005217  41.0677 319.0706 15.56057989 14855
TANUSHA-3               
1 43597U 98067PJ  18323.61944351  .00013626  00000-0  19551-3 0  9990
2 43597  51.6378 323.1294 0004806  53.6956 306.4479 15.56440636 14925
SURFSAT                 
1 43614U 18070B   18323.84997028  .00002222  00000-0  62276-4 0  9993
2 43614  93.0329 276.4974 0019039  44.6360 315.6441 15.36517871 10021
CP-7 (DAVE)             
1 43615U 18070C   18323.52408973  .00001989  00000-0  55762-4 0  9996
2 43615  93.0324 276.3629 0019025  45.6381 314.6422 15.36513686  9972
ELFIN-B                 
1 43616U 18070D   18323.38997461 -.00000006  00000-0  00000+0 0  9996
2 43616  93.0307 276.2771 0020306  51.2441 309.0836 15.36657676  9958
ELFIN-A                 
1 43617U 18070E   18323.32354752 -.00000006  00000-0  00000+0 0  9991
2 43617  93.0336 276.3029 0018582  48.5109 311.8008 15.36691079  9947
DEBRISSAT-1             
1 43621U 98067PM  18323.21774178  .00058690  00000-0  65022-3 0  9996
2 43621  51.6457 323.4966 0008989  54.1587 306.0241 15.62354860  9873
CUBEBEL-1 (BSUSAT-1)    
1 43666U 18083E   18323.86219998  .00000947  00000-0  51086-4 0  9998
2 43666  97.5390 344.6272 0014564 194.4465 289.9366 15.17132097  3317
DEBRISSAT-2             
1 43680U 98067PR  18323.54105269  .00010980  00000-0  16189-3 0  9996
2 43680  51.6412 323.3585 0004685  68.4917 291.6573 15.55936487 23651
